CCSDS_OMM_VERS = 2.0
CREATION_DATE  = 
ORIGINATOR     = 

OBJECT_NAME    = 2025-313AE
OBJECT_ID      = 2025-313AE
CENTER_NAME    = EARTH
REF_FRAME      = TEME
TIME_SYSTEM    = UTC
MEAN_ELEMENT_THEORY = SGP/SGP4

EPOCH          = 2026-01-25T06:10:08.404608
MEAN_MOTION    = 15.20453357
ECCENTRICITY   = .00152387
INCLINATION    = 97.4062
RA_OF_ASC_NODE = 102.2397
ARG_OF_PERICENTER = 144.4798
MEAN_ANOMALY   = 215.7455

EPHEMERIS_TYPE = 0
CLASSIFICATION_TYPE = U
NORAD_CAT_ID   = 67276
ELEMENT_SET_NO = 999
REV_AT_EPOCH   = 421
BSTAR          = .53543247E-3
MEAN_MOTION_DOT = .11661E-3
MEAN_MOTION_DDOT = 0

CCSDS_OMM_VERS = 2.0
CREATION_DATE  = 
ORIGINATOR     = 

OBJECT_NAME    = 2025-313AF
OBJECT_ID      = 2025-313AF
CENTER_NAME    = EARTH
REF_FRAME      = TEME
TIME_SYSTEM    = UTC
MEAN_ELEMENT_THEORY = SGP/SGP4

EPOCH          = 2026-01-25T06:10:51.835296
MEAN_MOTION    = 15.20400909
ECCENTRICITY   = .00152251
INCLINATION    = 97.4065
RA_OF_ASC_NODE = 102.2400
ARG_OF_PERICENTER = 144.3443
MEAN_ANOMALY   = 215.8812

EPHEMERIS_TYPE = 0
CLASSIFICATION_TYPE = U
NORAD_CAT_ID   = 67277
ELEMENT_SET_NO = 999
REV_AT_EPOCH   = 421
BSTAR          = .49816013E-3
MEAN_MOTION_DOT = .10827E-3
MEAN_MOTION_DDOT = 0

CCSDS_OMM_VERS = 2.0
CREATION_DATE  = 
ORIGINATOR     = 

OBJECT_NAME    = 2025-313AG
OBJECT_ID      = 2025-313AG
CENTER_NAME    = EARTH
REF_FRAME      = TEME
TIME_SYSTEM    = UTC
MEAN_ELEMENT_THEORY = SGP/SGP4

EPOCH          = 2026-01-25T06:10:21.166752
MEAN_MOTION    = 15.20456301
ECCENTRICITY   = .00150631
INCLINATION    = 97.4068
RA_OF_ASC_NODE = 102.2414
ARG_OF_PERICENTER = 144.5387
MEAN_ANOMALY   = 215.6853

EPHEMERIS_TYPE = 0
CLASSIFICATION_TYPE = U
NORAD_CAT_ID   = 67278
ELEMENT_SET_NO = 999
REV_AT_EPOCH   = 422
BSTAR          = .50088498E-3
MEAN_MOTION_DOT = .10904E-3
MEAN_MOTION_DDOT = 0

CCSDS_OMM_VERS = 2.0
CREATION_DATE  = 
ORIGINATOR     = 

OBJECT_NAME    = GALAPAGOS-UTE-SWSU
OBJECT_ID      = 2025-313AH
CENTER_NAME    = EARTH
REF_FRAME      = TEME
TIME_SYSTEM    = UTC
MEAN_ELEMENT_THEORY = SGP/SGP4

EPOCH          = 2026-01-25T06:08:43.844064
MEAN_MOTION    = 15.20524796
ECCENTRICITY   = .00157286
INCLINATION    = 97.4077
RA_OF_ASC_NODE = 102.2468
ARG_OF_PERICENTER = 141.3801
MEAN_ANOMALY   = 218.8563

EPHEMERIS_TYPE = 0
CLASSIFICATION_TYPE = U
NORAD_CAT_ID   = 67279
ELEMENT_SET_NO = 999
REV_AT_EPOCH   = 421
BSTAR          = .57408596E-3
MEAN_MOTION_DOT = .12538E-3
MEAN_MOTION_DDOT = 0

CCSDS_OMM_VERS = 2.0
CREATION_DATE  = 
ORIGINATOR     = 

OBJECT_NAME    = 2025-313AJ
OBJECT_ID      = 2025-313AJ
CENTER_NAME    = EARTH
REF_FRAME      = TEME
TIME_SYSTEM    = UTC
MEAN_ELEMENT_THEORY = SGP/SGP4

EPOCH          = 2026-01-25T02:51:02.544480
MEAN_MOTION    = 15.20753393
ECCENTRICITY   = .00146576
INCLINATION    = 97.4149
RA_OF_ASC_NODE = 102.1378
ARG_OF_PERICENTER = 138.7657
MEAN_ANOMALY   = 221.4689

EPHEMERIS_TYPE = 0
CLASSIFICATION_TYPE = U
NORAD_CAT_ID   = 67280
ELEMENT_SET_NO = 999
REV_AT_EPOCH   = 419
BSTAR          = .42743742E-3
MEAN_MOTION_DOT = .9372E-4
MEAN_MOTION_DDOT = 0

CCSDS_OMM_VERS = 2.0
CREATION_DATE  = 
ORIGINATOR     = 

OBJECT_NAME    = 2025-313AK
OBJECT_ID      = 2025-313AK
CENTER_NAME    = EARTH
REF_FRAME      = TEME
TIME_SYSTEM    = UTC
MEAN_ELEMENT_THEORY = SGP/SGP4

EPOCH          = 2026-01-25T05:58:09.375168
MEAN_MOTION    = 15.20848715
ECCENTRICITY   = .00133875
INCLINATION    = 97.4032
RA_OF_ASC_NODE = 102.2379
ARG_OF_PERICENTER = 137.3709
MEAN_ANOMALY   = 222.8568

EPHEMERIS_TYPE = 0
CLASSIFICATION_TYPE = U
NORAD_CAT_ID   = 67281
ELEMENT_SET_NO = 999
REV_AT_EPOCH   = 421
BSTAR          = .419105E-3
MEAN_MOTION_DOT = .921E-4
MEAN_MOTION_DDOT = 0

CCSDS_OMM_VERS = 2.0
CREATION_DATE  = 
ORIGINATOR     = 

OBJECT_NAME    = 2025-313AL
OBJECT_ID      = 2025-313AL
CENTER_NAME    = EARTH
REF_FRAME      = TEME
TIME_SYSTEM    = UTC
MEAN_ELEMENT_THEORY = SGP/SGP4

EPOCH          = 2026-01-25T05:48:27.449568
MEAN_MOTION    = 15.21232231
ECCENTRICITY   = .00121624
INCLINATION    = 97.4081
RA_OF_ASC_NODE = 102.2527
ARG_OF_PERICENTER = 136.6042
MEAN_ANOMALY   = 223.6154

EPHEMERIS_TYPE = 0
CLASSIFICATION_TYPE = U
NORAD_CAT_ID   = 67282
ELEMENT_SET_NO = 999
REV_AT_EPOCH   = 421
BSTAR          = .44716102E-3
MEAN_MOTION_DOT = .9939E-4
MEAN_MOTION_DDOT = 0

CCSDS_OMM_VERS = 2.0
CREATION_DATE  = 
ORIGINATOR     = 

OBJECT_NAME    = HORS 5
OBJECT_ID      = 2025-313AM
CENTER_NAME    = EARTH
REF_FRAME      = TEME
TIME_SYSTEM    = UTC
MEAN_ELEMENT_THEORY = SGP/SGP4

EPOCH          = 2026-01-25T05:45:37.968192
MEAN_MOTION    = 15.21457133
ECCENTRICITY   = .00119217
INCLINATION    = 97.4088
RA_OF_ASC_NODE = 102.2584
ARG_OF_PERICENTER = 136.5568
MEAN_ANOMALY   = 223.6609

EPHEMERIS_TYPE = 0
CLASSIFICATION_TYPE = U
NORAD_CAT_ID   = 67283
ELEMENT_SET_NO = 999
REV_AT_EPOCH   = 421
BSTAR          = .67740035E-3
MEAN_MOTION_DOT = .15201E-3
MEAN_MOTION_DDOT = 0

CCSDS_OMM_VERS = 2.0
CREATION_DATE  = 
ORIGINATOR     = 

OBJECT_NAME    = LOBACHEVSKY (RS83S)
OBJECT_ID      = 2025-313AN
CENTER_NAME    = EARTH
REF_FRAME      = TEME
TIME_SYSTEM    = UTC
MEAN_ELEMENT_THEORY = SGP/SGP4

EPOCH          = 2026-01-25T05:49:21.248256
MEAN_MOTION    = 15.21139072
ECCENTRICITY   = .00120851
INCLINATION    = 97.4072
RA_OF_ASC_NODE = 102.2490
ARG_OF_PERICENTER = 136.4953
MEAN_ANOMALY   = 223.7238

EPHEMERIS_TYPE = 0
CLASSIFICATION_TYPE = U
NORAD_CAT_ID   = 67284
ELEMENT_SET_NO = 999
REV_AT_EPOCH   = 421
BSTAR          = .43678253E-3
MEAN_MOTION_DOT = .9679E-4
MEAN_MOTION_DDOT = 0

CCSDS_OMM_VERS = 2.0
CREATION_DATE  = 
ORIGINATOR     = 

OBJECT_NAME    = NASBSAT-2
OBJECT_ID      = 2025-313AP
CENTER_NAME    = EARTH
REF_FRAME      = TEME
TIME_SYSTEM    = UTC
MEAN_ELEMENT_THEORY = SGP/SGP4

EPOCH          = 2026-01-25T05:43:58.183104
MEAN_MOTION    = 15.21497610
ECCENTRICITY   = .00115769
INCLINATION    = 97.4065
RA_OF_ASC_NODE = 102.2508
ARG_OF_PERICENTER = 137.9236
MEAN_ANOMALY   = 222.2891

EPHEMERIS_TYPE = 0
CLASSIFICATION_TYPE = U
NORAD_CAT_ID   = 67285
ELEMENT_SET_NO = 999
REV_AT_EPOCH   = 421
BSTAR          = .58873262E-3
MEAN_MOTION_DOT = .13213E-3
MEAN_MOTION_DDOT = 0

CCSDS_OMM_VERS = 2.0
CREATION_DATE  = 
ORIGINATOR     = 

OBJECT_NAME    = 2025-313AQ
OBJECT_ID      = 2025-313AQ
CENTER_NAME    = EARTH
REF_FRAME      = TEME
TIME_SYSTEM    = UTC
MEAN_ELEMENT_THEORY = SGP/SGP4

EPOCH          = 2026-01-25T04:08:27.547584
MEAN_MOTION    = 15.21507169
ECCENTRICITY   = .00112206
INCLINATION    = 97.4088
RA_OF_ASC_NODE = 102.2032
ARG_OF_PERICENTER = 133.3943
MEAN_ANOMALY   = 226.8229

EPHEMERIS_TYPE = 0
CLASSIFICATION_TYPE = U
NORAD_CAT_ID   = 67286
ELEMENT_SET_NO = 999
REV_AT_EPOCH   = 420
BSTAR          = .65082173E-3
MEAN_MOTION_DOT = .14619E-3
MEAN_MOTION_DDOT = 0

CCSDS_OMM_VERS = 2.0
CREATION_DATE  = 
ORIGINATOR     = 

OBJECT_NAME    = LUCA (RS90S)
OBJECT_ID      = 2025-313AR
CENTER_NAME    = EARTH
REF_FRAME      = TEME
TIME_SYSTEM    = UTC
MEAN_ELEMENT_THEORY = SGP/SGP4

EPOCH          = 2026-01-25T04:06:20.156832
MEAN_MOTION    = 15.21653405
ECCENTRICITY   = .0011122
INCLINATION    = 97.4085
RA_OF_ASC_NODE = 102.2057
ARG_OF_PERICENTER = 135.1293
MEAN_ANOMALY   = 225.0844

EPHEMERIS_TYPE = 0
CLASSIFICATION_TYPE = U
NORAD_CAT_ID   = 67287
ELEMENT_SET_NO = 999
REV_AT_EPOCH   = 420
BSTAR          = .72705467E-3
MEAN_MOTION_DOT = .16413E-3
MEAN_MOTION_DDOT = 0

CCSDS_OMM_VERS = 2.0
CREATION_DATE  = 
ORIGINATOR     = 

OBJECT_NAME    = 2025-313AS
OBJECT_ID      = 2025-313AS
CENTER_NAME    = EARTH
REF_FRAME      = TEME
TIME_SYSTEM    = UTC
MEAN_ELEMENT_THEORY = SGP/SGP4

EPOCH          = 2026-01-25T05:44:01.715136
MEAN_MOTION    = 15.21400497
ECCENTRICITY   = .00130286
INCLINATION    = 97.4076
RA_OF_ASC_NODE = 102.2623
ARG_OF_PERICENTER = 127.9188
MEAN_ANOMALY   = 232.3228

EPHEMERIS_TYPE = 0
CLASSIFICATION_TYPE = U
NORAD_CAT_ID   = 67288
ELEMENT_SET_NO = 999
REV_AT_EPOCH   = 421
BSTAR          = .44804885E-3
MEAN_MOTION_DOT = .10011E-3
MEAN_MOTION_DDOT = 0

CCSDS_OMM_VERS = 2.0
CREATION_DATE  = 
ORIGINATOR     = 

OBJECT_NAME    = NASBSAT-1
OBJECT_ID      = 2025-313AT
CENTER_NAME    = EARTH
REF_FRAME      = TEME
TIME_SYSTEM    = UTC
MEAN_ELEMENT_THEORY = SGP/SGP4

EPOCH          = 2026-01-25T05:37:33.863808
MEAN_MOTION    = 15.21926312
ECCENTRICITY   = .0010855
INCLINATION    = 97.4086
RA_OF_ASC_NODE = 102.2741
ARG_OF_PERICENTER = 135.3836
MEAN_ANOMALY   = 224.8275

EPHEMERIS_TYPE = 0
CLASSIFICATION_TYPE = U
NORAD_CAT_ID   = 67289
ELEMENT_SET_NO = 999
REV_AT_EPOCH   = 421
BSTAR          = .10325112E-2
MEAN_MOTION_DOT = .23546E-3
MEAN_MOTION_DDOT = 0

CCSDS_OMM_VERS = 2.0
CREATION_DATE  = 
ORIGINATOR     = 

OBJECT_NAME    = SAKHACUBE-CHOLBON (RS18S)
OBJECT_ID      = 2025-313AU
CENTER_NAME    = EARTH
REF_FRAME      = TEME
TIME_SYSTEM    = UTC
MEAN_ELEMENT_THEORY = SGP/SGP4

EPOCH          = 2026-01-25T04:04:07.747968
MEAN_MOTION    = 15.21764261
ECCENTRICITY   = .00108131
INCLINATION    = 97.4084
RA_OF_ASC_NODE = 102.2072
ARG_OF_PERICENTER = 134.6138
MEAN_ANOMALY   = 225.5982

EPHEMERIS_TYPE = 0
CLASSIFICATION_TYPE = U
NORAD_CAT_ID   = 67290
ELEMENT_SET_NO = 999
REV_AT_EPOCH   = 420
BSTAR          = .78416715E-3
MEAN_MOTION_DOT = .17767E-3
MEAN_MOTION_DDOT = 0

